{
"type": "FeatureCollection",
"name": "gee_plots",
"crs": { "type": "name", "properties": { "name": "urn:ogc:def:crs:OGC:1.3:CRS84" } },
"features": [
{ "type": "Feature", "properties": { "Name": "", "Description": "" }, "geometry": { "type": "Polygon", "coordinates": [ [ [ -122.698262041690995, 38.581176354261977, 0.0 ], [ -122.698210740821196, 38.581333327790681, 0.0 ], [ -122.698432979636095, 38.581378077305139, 0.0 ], [ -122.6984843490538, 38.581221076820214, 0.0 ], [ -122.698262041690995, 38.581176354261977, 0.0 ] ] ] } },
{ "type": "Feature", "properties": { "Name": "", "Description": "" }, "geometry": { "type": "Polygon", "coordinates": [ [ [ -122.707656640770793, 38.574235806860393, 0.0 ], [ -122.707599670696396, 38.574410208767063, 0.0 ], [ -122.707812480193198, 38.574453051465852, 0.0 ], [ -122.707869516517206, 38.574278613573519, 0.0 ], [ -122.707656640770793, 38.574235806860393, 0.0 ] ] ] } },
{ "type": "Feature", "properties": { "Name": "", "Description": "" }, "geometry": { "type": "Polygon", "coordinates": [ [ [ -122.699679464171894, 38.569609213449198, 0.0 ], [ -122.699625080753904, 38.569775651622557, 0.0 ], [ -122.699844271818705, 38.569819795881727, 0.0 ], [ -122.69989872379, 38.569653321734869, 0.0 ], [ -122.699679464171894, 38.569609213449198, 0.0 ] ] ] } },
{ "type": "Feature", "properties": { "Name": "", "Description": "" }, "geometry": { "type": "Polygon", "coordinates": [ [ [ -122.701961963681896, 38.570994648311043, 0.0 ], [ -122.701908523865001, 38.571158215088921, 0.0 ], [ -122.702123860957499, 38.571201570231317, 0.0 ], [ -122.702177368159099, 38.57103797649112, 0.0 ], [ -122.701961963681896, 38.570994648311043, 0.0 ] ] ] } },
{ "type": "Feature", "properties": { "Name": "", "Description": "" }, "geometry": { "type": "Polygon", "coordinates": [ [ [ -122.700648355214597, 38.574706309021217, 0.0 ], [ -122.700596745636503, 38.574864256288841, 0.0 ], [ -122.700801658295006, 38.574905514429588, 0.0 ], [ -122.700853331854503, 38.574747540199688, 0.0 ], [ -122.700648355214597, 38.574706309021217, 0.0 ] ] ] } },
{ "type": "Feature", "properties": { "Name": "", "Description": "" }, "geometry": { "type": "Polygon", "coordinates": [ [ [ -122.700999673815303, 38.586023269144718, 0.0 ], [ -122.700943965524999, 38.586193732416177, 0.0 ], [ -122.701163940332805, 38.586238020349299, 0.0 ], [ -122.7012197183263, 38.586067521103772, 0.0 ], [ -122.700999673815303, 38.586023269144718, 0.0 ] ] ] } },
{ "type": "Feature", "properties": { "Name": "", "Description": "" }, "geometry": { "type": "Polygon", "coordinates": [ [ [ -122.7025645079638, 38.58402116433674, 0.0 ], [ -122.702509204999004, 38.584190394808942, 0.0 ], [ -122.702711183156197, 38.584231056344628, 0.0 ], [ -122.702766548975504, 38.584061789889219, 0.0 ], [ -122.7025645079638, 38.58402116433674, 0.0 ] ] ] } },
{ "type": "Feature", "properties": { "Name": "", "Description": "" }, "geometry": { "type": "Polygon", "coordinates": [ [ [ -122.738527479727395, 38.606425856840431, 0.0 ], [ -122.738471876549298, 38.606596238585418, 0.0 ], [ -122.738693049112598, 38.606640683915842, 0.0 ], [ -122.738748720843802, 38.606470266171677, 0.0 ], [ -122.738527479727395, 38.606425856840431, 0.0 ] ] ] } },
{ "type": "Feature", "properties": { "Name": "", "Description": "" }, "geometry": { "type": "Polygon", "coordinates": [ [ [ -122.737546644830601, 38.608217425443222, 0.0 ], [ -122.737489805582101, 38.608391579896001, 0.0 ], [ -122.737709062956, 38.608435635269032, 0.0 ], [ -122.737765970753202, 38.608261444816293, 0.0 ], [ -122.737546644830601, 38.608217425443222, 0.0 ] ] ] } },
{ "type": "Feature", "properties": { "Name": "", "Description": "" }, "geometry": { "type": "Polygon", "coordinates": [ [ [ -122.738099667406999, 38.610065499472071, 0.0 ], [ -122.738047992038602, 38.610223840732942, 0.0 ], [ -122.738270294518102, 38.610268505664649, 0.0 ], [ -122.738322038442604, 38.610110137423689, 0.0 ], [ -122.738099667406999, 38.610065499472071, 0.0 ] ] ] } },
{ "type": "Feature", "properties": { "Name": "", "Description": "" }, "geometry": { "type": "Polygon", "coordinates": [ [ [ -122.741841205038597, 38.607917994893988, 0.0 ], [ -122.741784321805397, 38.60809232258503, 0.0 ], [ -122.741971190359394, 38.608129854965149, 0.0 ], [ -122.742028132991095, 38.607955500278941, 0.0 ], [ -122.741841205038597, 38.607917994893988, 0.0 ] ] ] } },
{ "type": "Feature", "properties": { "Name": "", "Description": "" }, "geometry": { "type": "Polygon", "coordinates": [ [ [ -122.7413051664969, 38.603728464013848, 0.0 ], [ -122.741251641328802, 38.603892507350601, 0.0 ], [ -122.741472706379696, 38.603936920165992, 0.0 ], [ -122.741526298934502, 38.603772849841782, 0.0 ], [ -122.7413051664969, 38.603728464013848, 0.0 ] ] ] } },
{ "type": "Feature", "properties": { "Name": "", "Description": "" }, "geometry": { "type": "Polygon", "coordinates": [ [ [ -122.737450306150507, 38.602192083147841, 0.0 ], [ -122.737397400526504, 38.602354206599387, 0.0 ], [ -122.737597131397493, 38.602394343246871, 0.0 ], [ -122.737650099864794, 38.60223219281059, 0.0 ], [ -122.737450306150507, 38.602192083147841, 0.0 ] ] ] } },
{ "type": "Feature", "properties": { "Name": "", "Description": "" }, "geometry": { "type": "Polygon", "coordinates": [ [ [ -122.732922864931496, 38.601090076424683, 0.0 ], [ -122.732866317610899, 38.601263319295853, 0.0 ], [ -122.733072711424697, 38.601304803631422, 0.0 ], [ -122.733129325024294, 38.601131524764483, 0.0 ], [ -122.732922864931496, 38.601090076424683, 0.0 ] ] ] } },
{ "type": "Feature", "properties": { "Name": "", "Description": "" }, "geometry": { "type": "Polygon", "coordinates": [ [ [ -122.715784782175206, 38.592160757603338, 0.0 ], [ -122.715729668847601, 38.592329498925253, 0.0 ], [ -122.715951897516405, 38.592374206117839, 0.0 ], [ -122.716007079362001, 38.592205437822258, 0.0 ], [ -122.715784782175206, 38.592160757603338, 0.0 ] ] ] } },
{ "type": "Feature", "properties": { "Name": "", "Description": "" }, "geometry": { "type": "Polygon", "coordinates": [ [ [ -122.715360032038106, 38.593620825726738, 0.0 ], [ -122.715311292095507, 38.593770053388653, 0.0 ], [ -122.7155276537041, 38.593813584566867, 0.0 ], [ -122.715576459936997, 38.593664329940651, 0.0 ], [ -122.715360032038106, 38.593620825726738, 0.0 ] ] ] } },
{ "type": "Feature", "properties": { "Name": "", "Description": "" }, "geometry": { "type": "Polygon", "coordinates": [ [ [ -122.715247560381599, 38.592414760667907, 0.0 ], [ -122.715192048083694, 38.592584717371508, 0.0 ], [ -122.715399338365401, 38.592626424322717, 0.0 ], [ -122.715454914653407, 38.592456431629117, 0.0 ], [ -122.715247560381599, 38.592414760667907, 0.0 ] ] ] } },
{ "type": "Feature", "properties": { "Name": "", "Description": "" }, "geometry": { "type": "Polygon", "coordinates": [ [ [ -122.717207537111804, 38.594716364455437, 0.0 ], [ -122.717154017436599, 38.594880234757241, 0.0 ], [ -122.717367347477705, 38.594923142392368, 0.0 ], [ -122.717420934557197, 38.594759245120493, 0.0 ], [ -122.717207537111804, 38.594716364455437, 0.0 ] ] ] } },
{ "type": "Feature", "properties": { "Name": "", "Description": "" }, "geometry": { "type": "Polygon", "coordinates": [ [ [ -122.718337938264398, 38.594113540770977, 0.0 ], [ -122.718284642430703, 38.594276736252603, 0.0 ], [ -122.718506753650402, 38.594321411270919, 0.0 ], [ -122.718560118019099, 38.594158188817723, 0.0 ], [ -122.718337938264398, 38.594113540770977, 0.0 ] ] ] } },
{ "type": "Feature", "properties": { "Name": "", "Description": "" }, "geometry": { "type": "Polygon", "coordinates": [ [ [ -122.720003227352805, 38.57203946169988, 0.0 ], [ -122.719949288550495, 38.572204684743767, 0.0 ], [ -122.720164959844297, 38.572248070592323, 0.0 ], [ -122.720218964872203, 38.572082820571943, 0.0 ], [ -122.720003227352805, 38.57203946169988, 0.0 ] ] ] } },
{ "type": "Feature", "properties": { "Name": "", "Description": "" }, "geometry": { "type": "Polygon", "coordinates": [ [ [ -122.715805373955405, 38.574384034496482, 0.0 ], [ -122.715750325634502, 38.574552623313863, 0.0 ], [ -122.715953102285994, 38.574593435204562, 0.0 ], [ -122.716008215742406, 38.574424810402412, 0.0 ], [ -122.715805373955405, 38.574384034496482, 0.0 ] ] ] } },
{ "type": "Feature", "properties": { "Name": "", "Description": "" }, "geometry": { "type": "Polygon", "coordinates": [ [ [ -122.711793402375704, 38.574019107515163, 0.0 ], [ -122.711736646994297, 38.574192890157747, 0.0 ], [ -122.711957807928599, 38.5742373950849, 0.0 ], [ -122.712014631800301, 38.57406358546816, 0.0 ], [ -122.711793402375704, 38.574019107515163, 0.0 ] ] ] } },
{ "type": "Feature", "properties": { "Name": "", "Description": "" }, "geometry": { "type": "Polygon", "coordinates": [ [ [ -122.732410412530797, 38.59988800898126, 0.0 ], [ -122.7323534397744, 38.600062557400342, 0.0 ], [ -122.732571429308194, 38.600106367190783, 0.0 ], [ -122.732628470576302, 38.599931791786879, 0.0 ], [ -122.732410412530797, 38.59988800898126, 0.0 ] ] ] } },
{ "type": "Feature", "properties": { "Name": "", "Description": "" }, "geometry": { "type": "Polygon", "coordinates": [ [ [ -122.726462789314496, 38.596115930412402, 0.0 ], [ -122.726406924086106, 38.596287045066333, 0.0 ], [ -122.726626632334899, 38.596331221422702, 0.0 ], [ -122.726682564965401, 38.596160070774133, 0.0 ], [ -122.726462789314496, 38.596115930412402, 0.0 ] ] ] } },
{ "type": "Feature", "properties": { "Name": "", "Description": "" }, "geometry": { "type": "Polygon", "coordinates": [ [ [ -122.695918281083095, 38.585289607632419, 0.0 ], [ -122.695862061203897, 38.585461599195092, 0.0 ], [ -122.696080081506807, 38.585505504087287, 0.0 ], [ -122.696136369942906, 38.585333476550588, 0.0 ], [ -122.695918281083095, 38.585289607632419, 0.0 ] ] ] } },
{ "type": "Feature", "properties": { "Name": "", "Description": "" }, "geometry": { "type": "Polygon", "coordinates": [ [ [ -122.710832289590499, 38.590547100958347, 0.0 ], [ -122.710777470542595, 38.590714903462882, 0.0 ], [ -122.710986625305097, 38.590756992329993, 0.0 ], [ -122.711041509493796, 38.590589153841037, 0.0 ], [ -122.710832289590499, 38.590547100958347, 0.0 ] ] ] } },
{ "type": "Feature", "properties": { "Name": "", "Description": "" }, "geometry": { "type": "Polygon", "coordinates": [ [ [ -122.736772596921199, 38.568030903316533, 0.0 ], [ -122.7367179809292, 38.568198340674392, 0.0 ], [ -122.736939090985203, 38.568242798328789, 0.0 ], [ -122.736993776651303, 38.568075324976967, 0.0 ], [ -122.736772596921199, 38.568030903316533, 0.0 ] ] ] } },
{ "type": "Feature", "properties": { "Name": "", "Description": "" }, "geometry": { "type": "Polygon", "coordinates": [ [ [ -122.719434330261393, 38.575028837341392, 0.0 ], [ -122.719378925091604, 38.575198544489282, 0.0 ], [ -122.719600848697098, 38.575243190010767, 0.0 ], [ -122.719656322365296, 38.575073455886489, 0.0 ], [ -122.719434330261393, 38.575028837341392, 0.0 ] ] ] } },
{ "type": "Feature", "properties": { "Name": "", "Description": "" }, "geometry": { "type": "Polygon", "coordinates": [ [ [ -122.7231942127504, 38.594314324522607, 0.0 ], [ -122.723137217560506, 38.594488877556238, 0.0 ], [ -122.7233596365556, 38.594533607179677, 0.0 ], [ -122.723416700280097, 38.594359018152488, 0.0 ], [ -122.7231942127504, 38.594314324522607, 0.0 ] ] ] } },
{ "type": "Feature", "properties": { "Name": "", "Description": "" }, "geometry": { "type": "Polygon", "coordinates": [ [ [ -122.726849220967395, 38.591367717944671, 0.0 ], [ -122.7267962415536, 38.591530007937997, 0.0 ], [ -122.727014968332099, 38.591573983027729, 0.0 ], [ -122.727068013988301, 38.591411666054583, 0.0 ], [ -122.726849220967395, 38.591367717944671, 0.0 ] ] ] } },
{ "type": "Feature", "properties": { "Name": "", "Description": "" }, "geometry": { "type": "Polygon", "coordinates": [ [ [ -122.729896795183194, 38.594448808037647, 0.0 ], [ -122.729842622664705, 38.594614764445552, 0.0 ], [ -122.730056633128996, 38.594657794723332, 0.0 ], [ -122.730110871925007, 38.594491802321983, 0.0 ], [ -122.729896795183194, 38.594448808037647, 0.0 ] ] ] } },
{ "type": "Feature", "properties": { "Name": "", "Description": "" }, "geometry": { "type": "Polygon", "coordinates": [ [ [ -122.713155117441204, 38.589577136484493, 0.0 ], [ -122.713102714194093, 38.589737565235012, 0.0 ], [ -122.713323839820404, 38.589782058433023, 0.0 ], [ -122.713376310461896, 38.589621602713187, 0.0 ], [ -122.713155117441204, 38.589577136484493, 0.0 ] ] ] } },
{ "type": "Feature", "properties": { "Name": "", "Description": "" }, "geometry": { "type": "Polygon", "coordinates": [ [ [ -122.710961915136195, 38.589869360888528, 0.0 ], [ -122.710910076443, 38.590028041715001, 0.0 ], [ -122.711130098993806, 38.590072320043127, 0.0 ], [ -122.7111820062741, 38.589913603241193, 0.0 ], [ -122.710961915136195, 38.589869360888528, 0.0 ] ] ] } },
{ "type": "Feature", "properties": { "Name": "", "Description": "" }, "geometry": { "type": "Polygon", "coordinates": [ [ [ -122.714039277309695, 38.58955224616944, 0.0 ], [ -122.713989120517496, 38.589705813690543, 0.0 ], [ -122.714210328092605, 38.589750314426723, 0.0 ], [ -122.714260552262502, 38.589596728951904, 0.0 ], [ -122.714039277309695, 38.58955224616944, 0.0 ] ] ] } },
{ "type": "Feature", "properties": { "Name": "", "Description": "" }, "geometry": { "type": "Polygon", "coordinates": [ [ [ -122.711635595391797, 38.587491502709682, 0.0 ], [ -122.711580644546103, 38.587659728921849, 0.0 ], [ -122.7118024684506, 38.587704361899959, 0.0 ], [ -122.711857488961797, 38.587536108719853, 0.0 ], [ -122.711635595391797, 38.587491502709682, 0.0 ] ] ] } },
{ "type": "Feature", "properties": { "Name": "", "Description": "" }, "geometry": { "type": "Polygon", "coordinates": [ [ [ -122.707426664458694, 38.587601574125308, 0.0 ], [ -122.707370103940093, 38.587774687818211, 0.0 ], [ -122.707575038818803, 38.587815934124343, 0.0 ], [ -122.707631663324094, 38.587642784444903, 0.0 ], [ -122.707426664458694, 38.587601574125308, 0.0 ] ] ] } },
{ "type": "Feature", "properties": { "Name": "", "Description": "" }, "geometry": { "type": "Polygon", "coordinates": [ [ [ -122.700068570562806, 38.58878734457106, 0.0 ], [ -122.7000115471333, 38.588961823278026, 0.0 ], [ -122.700232589880798, 38.589006322964799, 0.0 ], [ -122.700289682965206, 38.588831817293247, 0.0 ], [ -122.700068570562806, 38.58878734457106, 0.0 ] ] ] } },
{ "type": "Feature", "properties": { "Name": "", "Description": "" }, "geometry": { "type": "Polygon", "coordinates": [ [ [ -122.7133861572743, 38.575384315419043, 0.0 ], [ -122.713329680038001, 38.575557261363613, 0.0 ], [ -122.713548374137005, 38.575601270593431, 0.0 ], [ -122.713604919872097, 38.5754282976756, 0.0 ], [ -122.7133861572743, 38.575384315419043, 0.0 ] ] ] } },
{ "type": "Feature", "properties": { "Name": "", "Description": "" }, "geometry": { "type": "Polygon", "coordinates": [ [ [ -122.713907119838595, 38.576849839597337, 0.0 ], [ -122.713850314968298, 38.577023785279593, 0.0 ], [ -122.714047384826202, 38.577063441989189, 0.0 ], [ -122.714104253685804, 38.57688946032016, 0.0 ], [ -122.713907119838595, 38.576849839597337, 0.0 ] ] ] } },
{ "type": "Feature", "properties": { "Name": "", "Description": "" }, "geometry": { "type": "Polygon", "coordinates": [ [ [ -122.687489559985707, 38.571586599891347, 0.0 ], [ -122.687432969124998, 38.571759695277812, 0.0 ], [ -122.687654075164005, 38.571804245964032, 0.0 ], [ -122.687710735710795, 38.571631114609218, 0.0 ], [ -122.687489559985707, 38.571586599891347, 0.0 ] ] ] } },
{ "type": "Feature", "properties": { "Name": "", "Description": "" }, "geometry": { "type": "Polygon", "coordinates": [ [ [ -122.688366567291496, 38.573517782878923, 0.0 ], [ -122.688310526070296, 38.573689203867268, 0.0 ], [ -122.688530212885496, 38.573733460731049, 0.0 ], [ -122.688586322615194, 38.573562012784343, 0.0 ], [ -122.688366567291496, 38.573517782878923, 0.0 ] ] ] } },
{ "type": "Feature", "properties": { "Name": "", "Description": "" }, "geometry": { "type": "Polygon", "coordinates": [ [ [ -122.686628957047802, 38.574233895497521, 0.0 ], [ -122.6865719059263, 38.574408386008479, 0.0 ], [ -122.686792639860599, 38.574452865221232, 0.0 ], [ -122.686849760667997, 38.574278338741763, 0.0 ], [ -122.686628957047802, 38.574233895497521, 0.0 ] ] ] } },
{ "type": "Feature", "properties": { "Name": "", "Description": "" }, "geometry": { "type": "Polygon", "coordinates": [ [ [ -122.736117195326997, 38.6088534638249, 0.0 ], [ -122.736066137958005, 38.609009895101117, 0.0 ], [ -122.736288332143104, 38.609054545532707, 0.0 ], [ -122.736339456924995, 38.60889808727628, 0.0 ], [ -122.736117195326997, 38.6088534638249, 0.0 ] ] ] } },
{ "type": "Feature", "properties": { "Name": "", "Description": "" }, "geometry": { "type": "Polygon", "coordinates": [ [ [ -122.737165958344505, 38.604081313827137, 0.0 ], [ -122.737111539621495, 38.604248065837368, 0.0 ], [ -122.737324578928295, 38.604290873340041, 0.0 ], [ -122.737379063901002, 38.604124094344108, 0.0 ], [ -122.737165958344505, 38.604081313827137, 0.0 ] ] ] } },
{ "type": "Feature", "properties": { "Name": "", "Description": "" }, "geometry": { "type": "Polygon", "coordinates": [ [ [ -122.731019069559693, 38.598166464835977, 0.0 ], [ -122.730962098301703, 38.598341003617968, 0.0 ], [ -122.7311653315749, 38.59838185322311, 0.0 ], [ -122.731222366783499, 38.598207287453818, 0.0 ], [ -122.731019069559693, 38.598166464835977, 0.0 ] ] ] } },
{ "type": "Feature", "properties": { "Name": "", "Description": "" }, "geometry": { "type": "Polygon", "coordinates": [ [ [ -122.717618342291601, 38.585488246438018, 0.0 ], [ -122.717565066430197, 38.585651396827423, 0.0 ], [ -122.717782653342994, 38.585695170145229, 0.0 ], [ -122.717835996593095, 38.585531992783878, 0.0 ], [ -122.717618342291601, 38.585488246438018, 0.0 ] ] ] } },
{ "type": "Feature", "properties": { "Name": "", "Description": "" }, "geometry": { "type": "Polygon", "coordinates": [ [ [ -122.734770182080695, 38.566575657928581, 0.0 ], [ -122.734718005242499, 38.566735601928308, 0.0 ], [ -122.734938060031794, 38.566779853698513, 0.0 ], [ -122.734990305419402, 38.566619873708497, 0.0 ], [ -122.734770182080695, 38.566575657928581, 0.0 ] ] ] } },
{ "type": "Feature", "properties": { "Name": "", "Description": "" }, "geometry": { "type": "Polygon", "coordinates": [ [ [ -122.731293073407699, 38.569334358850838, 0.0 ], [ -122.731240538472207, 38.569495372818317, 0.0 ], [ -122.731460862201004, 38.569539676790249, 0.0 ], [ -122.731513465653293, 38.569378635845631, 0.0 ], [ -122.731293073407699, 38.569334358850838, 0.0 ] ] ] } },
{ "type": "Feature", "properties": { "Name": "", "Description": "" }, "geometry": { "type": "Polygon", "coordinates": [ [ [ -122.695529321326802, 38.582026082154123, 0.0 ], [ -122.695472428462494, 38.582200144631472, 0.0 ], [ -122.695691318551795, 38.582244223747743, 0.0 ], [ -122.695748279924203, 38.582070134306733, 0.0 ], [ -122.695529321326802, 38.582026082154123, 0.0 ] ] ] } },
{ "type": "Feature", "properties": { "Name": "", "Description": "" }, "geometry": { "type": "Polygon", "coordinates": [ [ [ -122.730892286614505, 38.569910828006527, 0.0 ], [ -122.730840031381902, 38.570070977267662, 0.0 ], [ -122.731057226266003, 38.570114652974517, 0.0 ], [ -122.731109548877001, 38.569954476735766, 0.0 ], [ -122.730892286614505, 38.569910828006527, 0.0 ] ] ] } },
{ "type": "Feature", "properties": { "Name": "", "Description": "" }, "geometry": { "type": "Polygon", "coordinates": [ [ [ -122.687583604283205, 38.574054234032047, 0.0 ], [ -122.687534181759403, 38.574205395327297, 0.0 ], [ -122.687719483958105, 38.574242730832417, 0.0 ], [ -122.687768963636103, 38.574091542575829, 0.0 ], [ -122.687583604283205, 38.574054234032047, 0.0 ] ] ] } },
{ "type": "Feature", "properties": { "Name": "", "Description": "" }, "geometry": { "type": "Polygon", "coordinates": [ [ [ -122.685630772681193, 38.575169384522212, 0.0 ], [ -122.6855762816447, 38.575336031953178, 0.0 ], [ -122.685792378142807, 38.57537958136917, 0.0 ], [ -122.6858469366029, 38.575212897971127, 0.0 ], [ -122.685630772681193, 38.575169384522212, 0.0 ] ] ] } },
{ "type": "Feature", "properties": { "Name": "", "Description": "" }, "geometry": { "type": "Polygon", "coordinates": [ [ [ -122.685404048513405, 38.57461469156452, 0.0 ], [ -122.685347020922293, 38.574789091405407, 0.0 ], [ -122.685539723839796, 38.574827928217573, 0.0 ], [ -122.685596813184603, 38.574653483389227, 0.0 ], [ -122.685404048513405, 38.57461469156452, 0.0 ] ] ] } },
{ "type": "Feature", "properties": { "Name": "", "Description": "" }, "geometry": { "type": "Polygon", "coordinates": [ [ [ -122.686276953537401, 38.573568534926117, 0.0 ], [ -122.686226749090807, 38.573722081758731, 0.0 ], [ -122.686435037140399, 38.573764049988142, 0.0 ], [ -122.686485305577904, 38.573610476202091, 0.0 ], [ -122.686276953537401, 38.573568534926117, 0.0 ] ] ] } }
]
}
